     3.02           N: GNSS NAV DATA    G: GPS              RINEX VERSION / TYPE                                                
Версия от 220825                        20240223 06:20:25UTCPGM / RUN BY / DATE                                                 
GPUT  0.9313225746D-09 0.888178420D-15 503808 2302          TIME SYSTEM CORR
                                                            END OF HEADER                                                       
G16 2024 02 22 02 00 00-0.357379671186D-03 0.841282599140D-11 0.000000000000D+00
     0.820000000000D+02-0.124062500000D+02 0.481591488790D-08 0.126351181205D-01
    -0.512227416038D-06 0.140077439137D-01 0.575557351112D-05 0.515372777557D+04
     0.352800000000D+06-0.130385160446D-07 0.176695554054D+01 0.199303030968D-06
     0.962208061908D+00 0.270187500000D+03 0.827547163690D+00-0.834534761723D-08
    -0.261796619166D-09 0.100000000000D+01 0.230200000000D+04 0.000000000000D+00
     0.200000000000D+01 0.000000000000D+00-0.102445483208D-07 0.820000000000D+02
     0.345600000000D+06
G17 2024 02 22 02 00 00 0.716212671250D-03-0.125055521494D-11 0.000000000000D+00
     0.180000000000D+02 0.510000000000D+02 0.415374444870D-08-0.923208548690D+00
     0.257417559624D-05 0.135222177487D-01 0.113751739264D-04 0.515368166161D+04
     0.352800000000D+06-0.245869159698D-06 0.278824047110D+01-0.745058059692D-08
     0.970553911535D+00 0.172437500000D+03-0.133441420241D+01-0.791854412486D-08
    -0.264296723305D-09 0.100000000000D+01 0.230200000000D+04 0.000000000000D+00
     0.200000000000D+01 0.000000000000D+00-0.111758708954D-07 0.180000000000D+02
     0.345600000000D+06
G18 2024 02 22 02 00 00-0.560761895031D-03-0.818545231596D-11 0.000000000000D+00
     0.143000000000D+03 0.111875000000D+03 0.424767693279D-08-0.299086513614D+01
     0.584125518799D-05 0.385067786556D-02 0.590085983276D-05 0.515362442589D+04
     0.352800000000D+06-0.819563865662D-07-0.249106344023D+01-0.186264514923D-07
     0.974651824492D+00 0.275187500000D+03-0.302254538202D+01-0.794640242813D-08
     0.295012288446D-09 0.100000000000D+01 0.230200000000D+04 0.000000000000D+00
     0.200000000000D+01 0.000000000000D+00-0.838190317154D-08 0.399000000000D+03
     0.345618000000D+06
G19 2024 02 22 02 00 00 0.444004312158D-03 0.534328137292D-11 0.000000000000D+00
     0.100000000000D+02 0.510937500000D+02 0.410624247005D-08 0.111270740217D+01
     0.258348882198D-05 0.951124192216D-02 0.108052045107D-04 0.515369305038D+04
     0.352800000000D+06 0.199303030968D-06 0.283259696650D+01-0.447034835815D-07
     0.969743582193D+00 0.174687500000D+03 0.248406739586D+01-0.768031991615D-08
    -0.331085219600D-09 0.100000000000D+01 0.230200000000D+04 0.000000000000D+00
     0.200000000000D+01 0.000000000000D+00-0.153668224812D-07 0.100000000000D+02
     0.345600000000D+06
G20 2024 02 22 02 00 00 0.386601313949D-03-0.147792889038D-11 0.000000000000D+00
     0.410000000000D+02-0.256562500000D+02 0.507735434933D-08-0.242951408642D+01
    -0.114552676678D-05 0.383961119223D-02 0.203028321266D-06 0.515372431374D+04
     0.352800000000D+06 0.335276126862D-07-0.163671434459D+01-0.912696123123D-07
     0.952135538850D+00 0.368687500000D+03-0.262351756310D+01-0.862643075404D-08
    -0.657170230921D-10 0.100000000000D+01 0.230200000000D+04 0.000000000000D+00
     0.200000000000D+01 0.000000000000D+00-0.838190317154D-08 0.410000000000D+02
     0.345600000000D+06
G21 2024 02 22 02 00 00 0.134059228003D-03-0.136424205266D-11 0.000000000000D+00
     0.340000000000D+02 0.950937500000D+02 0.459376277723D-08-0.102679636032D+01
     0.477395951748D-05 0.253241223982D-01 0.635534524918D-05 0.515371586609D+04
     0.352800000000D+06-0.249594449997D-06-0.259927192835D+01-0.251457095146D-06
     0.962023027641D+00 0.265500000000D+03-0.623859780824D+00-0.833963309348D-08
     0.556808907612D-09 0.100000000000D+01 0.230200000000D+04 0.000000000000D+00
     0.200000000000D+01 0.000000000000D+00-0.102445483208D-07 0.340000000000D+02
     0.345600000000D+06
G22 2024 02 22 02 00 00 0.273329205811D-04-0.613908923697D-11 0.000000000000D+00
     0.800000000000D+01-0.122500000000D+02 0.488198906873D-08-0.409061134307D+00
    -0.737607479095D-06 0.144958711462D-01 0.583566725254D-05 0.515370708656D+04
     0.352800000000D+06-0.206753611565D-06 0.177025731153D+01-0.838190317154D-07
     0.961507299278D+00 0.269687500000D+03-0.114192725390D+01-0.835391940285D-08
    -0.187507810453D-09 0.100000000000D+01 0.230200000000D+04 0.000000000000D+00
     0.200000000000D+01 0.000000000000D+00-0.111758708954D-07 0.800000000000D+01
     0.345600000000D+06
G23 2024 02 22 02 00 00 0.161316245794D-03 0.818545231596D-11 0.000000000000D+00
     0.187000000000D+03-0.404687500000D+02 0.443089885044D-08 0.218073479778D+01
    -0.210478901863D-05 0.397504528519D-02 0.142864882946D-05 0.515370511818D+04
     0.352800000000D+06-0.447034835815D-07-0.149046726685D+01 0.689178705216D-07
     0.977482891354D+00 0.362593750000D+03-0.296010152987D+01-0.824712924032D-08
    -0.153577825704D-09 0.100000000000D+01 0.230200000000D+04 0.000000000000D+00
     0.200000000000D+01 0.000000000000D+00-0.838190317154D-08 0.699000000000D+03
     0.345618000000D+06
G24 2024 02 22 02 00 00-0.435569789261D-03-0.602540239925D-11 0.000000000000D+00
     0.330000000000D+02 0.151875000000D+02 0.492984820511D-08-0.276002876010D+01
     0.767409801483D-06 0.151044472586D-01 0.904314219952D-05 0.515372782707D+04
     0.352800000000D+06 0.158324837685D-06 0.537855281911D+00-0.160187482834D-06
     0.934239370866D+00 0.188656250000D+03 0.968030456846D+00-0.789247161027D-08
     0.609668252273D-09 0.100000000000D+01 0.230200000000D+04 0.000000000000D+00
     0.200000000000D+01 0.000000000000D+00 0.232830643654D-08 0.330000000000D+02
     0.345618000000D+06
G25 2024 02 22 02 00 00 0.489300116897D-03 0.113686837722D-11 0.000000000000D+00
     0.101000000000D+03-0.100312500000D+02 0.510521265260D-08 0.166762825399D+01
    -0.685453414917D-06 0.118261355674D-01 0.520609319210D-05 0.515360001183D+04
     0.352800000000D+06-0.234693288803D-06 0.166345463210D+01-0.165775418282D-06
     0.950542140181D+00 0.274875000000D+03 0.107764926821D+01-0.834320467082D-08
    -0.176793078427D-09 0.100000000000D+01 0.230200000000D+04 0.000000000000D+00
     0.280000000000D+01 0.000000000000D+00 0.558793544769D-08 0.101000000000D+03
     0.345600000000D+06
G26 2024 02 22 02 00 00 0.187647528946D-03-0.409272615798D-11 0.000000000000D+00
     0.510000000000D+02-0.681250000000D+01 0.557058918026D-08 0.860193010103D+00
    -0.251457095146D-06 0.882247404661D-02 0.477954745293D-05 0.515358316040D+04
     0.352800000000D+06-0.558793544769D-07 0.160271041573D+01 0.102445483208D-06
     0.931318991391D+00 0.271406250000D+03 0.533374271671D+00-0.862321633443D-08
    -0.216080429189D-09 0.100000000000D+01 0.230200000000D+04 0.000000000000D+00
     0.200000000000D+01 0.000000000000D+00 0.698491930962D-08 0.510000000000D+02
     0.345600000000D+06
G27 2024 02 22 02 00 00-0.608991831541D-05-0.318323145621D-11 0.000000000000D+00
     0.960000000000D+02 0.279375000000D+02 0.430125059292D-08-0.862473869087D+00
     0.161677598953D-05 0.124229000648D-01 0.994838774204D-05 0.515367893028D+04
     0.352800000000D+06 0.193715095520D-06 0.272069603804D+01 0.217929482460D-06
     0.963758209404D+00 0.189906250000D+03 0.762045983920D+00-0.789747181854D-08
    -0.351086052715D-09 0.100000000000D+01 0.230200000000D+04 0.000000000000D+00
     0.200000000000D+01 0.000000000000D+00 0.186264514923D-08 0.960000000000D+02
     0.345618000000D+06
G28 2024 02 22 02 00 00-0.139182433486D-03-0.130739863380D-10 0.000000000000D+00
     0.189000000000D+03 0.185312500000D+02 0.450697344782D-08 0.100356832699D+01
     0.957399606705D-06 0.630053924397D-03 0.872090458870D-05 0.515359678841D+04
     0.352800000000D+06 0.186264514923D-07 0.599044280965D+00-0.242143869400D-07
     0.961648529390D+00 0.213593750000D+03 0.173428779571D+01-0.792818738369D-08
     0.504663878419D-09 0.100000000000D+01 0.230200000000D+04 0.000000000000D+00
     0.200000000000D+01 0.000000000000D+00-0.931322574616D-08 0.445000000000D+03
     0.345600000000D+06
G29 2024 02 22 02 00 00-0.606479588896D-03 0.795807864051D-12 0.000000000000D+00
     0.810000000000D+02 0.444062500000D+02 0.400623830448D-08-0.940166974482D+00
     0.210851430893D-05 0.263304368127D-02 0.113006681204D-04 0.515364343834D+04
     0.352800000000D+06-0.428408384323D-07 0.280300102632D+01-0.931322574616D-08
     0.972946957318D+00 0.168687500000D+03 0.249817752600D+01-0.766389066038D-08
    -0.280011663610D-09 0.100000000000D+01 0.230200000000D+04 0.000000000000D+00
     0.280000000000D+01 0.000000000000D+00-0.102445483208D-07 0.810000000000D+02
     0.345618000000D+06
G30 2024 02 22 02 00 00-0.429432373494D-03 0.500222085975D-11 0.000000000000D+00
     0.820000000000D+02 0.242187500000D+02 0.512307053931D-08 0.236453321102D+01
     0.118277966976D-05 0.682372204028D-02 0.861473381519D-05 0.515368504715D+04
     0.352800000000D+06-0.912696123123D-07 0.635249927864D+00-0.707805156708D-07
     0.935634895235D+00 0.200781250000D+03-0.252744023392D+01-0.815319675623D-08
     0.539308178636D-09 0.100000000000D+01 0.230200000000D+04 0.000000000000D+00
     0.200000000000D+01 0.000000000000D+00 0.372529029846D-08 0.820000000000D+02
     0.345618000000D+06
G31 2024 02 22 02 00 00-0.227842014283D-03-0.113686837722D-12 0.000000000000D+00
     0.990000000000D+02 0.212187500000D+02 0.470698177897D-08 0.162561818118D+01
     0.114180147648D-05 0.105624909047D-01 0.875256955624D-05 0.515368256187D+04
     0.352800000000D+06-0.186264514923D-06 0.654319945704D+00 0.484287738800D-07
     0.954488216871D+00 0.212750000000D+03 0.659391819779D+00-0.807926510525D-08
     0.420017495415D-09 0.100000000000D+01 0.230200000000D+04 0.000000000000D+00
     0.200000000000D+01 0.000000000000D+00-0.135041773319D-07 0.990000000000D+02
     0.345600000000D+06
